{
    "links": {
        "self": "http://www.neowsapp.com/rest/v1/neo/3763928?api_key=iIulBulltgU6a56xZRHN4H3l9WmuAYTsLGpBGhQ2"
    },
    "id": "3763928",
    "neo_reference_id": "3763928",
    "name": "(2016 WE)",
    "designation": "2016 WE",
    "nasa_jpl_url": "http://ssd.jpl.nasa.gov/sbdb.cgi?sstr=3763928",
    "absolute_magnitude_h": 26.6,
    "estimated_diameter": {
        "kilometers": {
            "estimated_diameter_min": 0.0127219879,
            "estimated_diameter_max": 0.0284472297
        },
        "meters": {
            "estimated_diameter_min": 12.7219878539,
            "estimated_diameter_max": 28.4472296503
        },
        "miles": {
            "estimated_diameter_min": 0.0079050743,
            "estimated_diameter_max": 0.0176762835
        },
        "feet": {
            "estimated_diameter_min": 41.7388066307,
            "estimated_diameter_max": 93.330808926
        }
    },
    "is_potentially_hazardous_asteroid": false,
    "close_approach_data": [
        {
            "close_approach_date": "2016-11-17",
            "close_approach_date_full": "2016-Nov-17 14:50",
            "epoch_date_close_approach": 1479394200000,
            "relative_velocity": {
                "kilometers_per_second": "7.1787373325",
                "kilometers_per_hour": "25843.4543971253",
                "miles_per_hour": "16058.1175391471"
            },
            "miss_distance": {
                "astronomical": "0.0279870307",
                "lunar": "10.8869549423",
                "kilometers": "4186800.180344609",
                "miles": "2601556.9962652442"
            },
            "orbiting_body": "Earth"
        },
        {
            "close_approach_date": "2130-10-07",
            "close_approach_date_full": "2130-Oct-07 04:22",
            "epoch_date_close_approach": 5073250920000,
            "relative_velocity": {
                "kilometers_per_second": "14.6229651197",
                "kilometers_per_hour": "52642.6744307609",
                "miles_per_hour": "32710.1106761581"
            },
            "miss_distance": {
                "astronomical": "0.2464616859",
                "lunar": "95.8735958151",
                "kilometers": "36870143.247249033",
                "miles": "22910044.6609533354"
            },
            "orbiting_body": "Earth"
        },
        {
            "close_approach_date": "2196-09-27",
            "close_approach_date_full": "2196-Sep-27 07:46",
            "epoch_date_close_approach": 7155243960000,
            "relative_velocity": {
                "kilometers_per_second": "18.9121611661",
                "kilometers_per_hour": "68083.7801978567",
                "miles_per_hour": "42304.6133123849"
            },
            "miss_distance": {
                "astronomical": "0.3751440465",
                "lunar": "145.9310340885",
                "kilometers": "56120750.299580955",
                "miles": "34871817.208508979"
            },
            "orbiting_body": "Earth"
        }
    ],
    "orbital_data": {
        "orbit_id": "5",
        "orbit_determination_date": "2017-04-06 08:22:10",
        "first_observation_date": "2016-11-18",
        "last_observation_date": "2016-11-30",
        "data_arc_in_days": 12,
        "observations_used": 32,
        "orbit_uncertainty": "8",
        "minimum_orbit_intersection": ".0269747",
        "jupiter_tisserand_invariant": "3.290",
        "epoch_osculation": "2457712.5",
        "eccentricity": ".5740469008106702",
        "semi_major_axis": "2.384332811664302",
        "inclination": "2.822593394548569",
        "ascending_node_longitude": "48.48716338869519",
        "orbital_period": "1344.772253630209",
        "perihelion_distance": "1.015613950627218",
        "perihelion_argument": "6.298235973190959",
        "aphelion_distance": "3.753051672701385",
        "perihelion_time": "2457709.736437442983",
        "mean_anomaly": ".7398148778281509",
        "mean_motion": ".267703322274966",
        "equinox": "J2000",
        "orbit_class": {
            "orbit_class_type": "APO",
            "orbit_class_description": "Near-Earth asteroid orbits which cross the Earth’s orbit similar to that of 1862 Apollo",
            "orbit_class_range": "a (semi-major axis) > 1.0 AU; q (perihelion) < 1.017 AU"
        }
    },
    "is_sentry_object": false
}